[{"OBJECT_NAME":"STARLINK-36465","OBJECT_ID":"2026-005V","EPOCH":"2026-03-09T11:47:45.416832","MEAN_MOTION":15.27584139,"ECCENTRICITY":0.00015869,"INCLINATION":42.9967,"RA_OF_ASC_NODE":239.3225,"ARG_OF_PERICENTER":282.7988,"MEAN_ANOMALY":77.2686,"EPHEMERIS_TYPE":0,"CLASSIFICATION_TYPE":"U","NORAD_CAT_ID":67423,"ELEMENT_SET_NO":999,"REV_AT_EPOCH":866,"BSTAR":0.00091952603,"MEAN_MOTION_DOT":0.00025131,"MEAN_MOTION_DDOT":0},{"OBJECT_NAME":"OKEAN-1","OBJECT_ID":"1988-056A","EPOCH":"2026-03-09T21:19:04.260000","MEAN_MOTION":15.31672069,"ECCENTRICITY":0.00129431,"INCLINATION":82.4671,"RA_OF_ASC_NODE":262.7586,"ARG_OF_PERICENTER":168.0696,"MEAN_ANOMALY":192.0855,"EPHEMERIS_TYPE":0,"CLASSIFICATION_TYPE":"U","NORAD_CAT_ID":19274,"ELEMENT_SET_NO":999,"REV_AT_EPOCH":3511,"BSTAR":0.00038371192,"MEAN_MOTION_DOT":0.00011798,"MEAN_MOTION_DDOT":0}]
